UNKNOWN                 
1 89349U          25193.92290327  .00000466  00000+0  16092-2 0  9992
2 89349  90.2422   3.9082 0028433 310.2411  49.6222 12.96182805458956
UNKNOWN                 
1 89379U          25196.77492572  .00002107  00000+0  28095-2 0  9997
2 89379 100.4828 201.0512 0047585 127.8170 232.7289 13.61292774560362
UNKNOWN                 
1 89395U          25195.46215328  .00000340  00000+0  42951-2 0  9996
2 89395 102.3429 172.2942 0228186  23.1524 133.3842 12.01486934506573
UNKNOWN                 
1 89403U          25197.69156206  .00000481  00000+0  16117-2 0  9993
2 89403  90.2448   2.4174 0026658 255.7016 121.6520 12.98309863458489
UNKNOWN                 
1 89484U          25185.44598900  .00010654  00000+0  17129-1 0  9999
2 89484  84.2620 199.3026 2805861 235.7369  94.5674  9.03686087340810
UNKNOWN                 
1 89493U          25193.63799050  .00001729  00000+0  88126-3 0  9998
2 89493  99.0367 260.4766 0084989 114.0039 247.0059 14.15237393442281
UNKNOWN                 
1 89494U          25197.64463907  .00001708  00000+0  87099-3 0  9998
2 89494  99.0358 264.4390 0085443 103.0549 258.0179 14.15189840442704
